OBJECT_NAME,OBJECT_ID,EPOCH,MEAN_MOTION,ECCENTRICITY,INCLINATION,RA_OF_ASC_NODE,ARG_OF_PERICENTER,MEAN_ANOMALY,EPHEMERIS_TYPE,CLASSIFICATION_TYPE,NORAD_CAT_ID,ELEMENT_SET_NO,REV_AT_EPOCH,BSTAR,MEAN_MOTION_DOT,MEAN_MOTION_DDOT
STARLINK-3229,2021-115AD,2026-07-19T04:40:29.474112,15.08830126,.00011366,53.1602,278.4116,83.4477,276.6644,0,U,49751,999,25539,.7987559E-5,-.161E-5,0
STARLINK-3209,2021-115AE,2026-07-19T00:00:00.999648,15.34372097,.00008129,53.1589,266.2241,98.4662,271.3848,0,U,49752,999,570,.1057856E-2,.35503E-3,0
STARLINK-3200,2021-115AF,2026-07-19T08:00:01.999872,15.24511904,.00015477,53.1601,276.7735,27.2949,129.8652,0,U,49753,999,580,.3736891E-3,.8983E-4,0
STARLINK-3193,2021-115AG,2026-07-19T08:00:01.999872,15.33552405,.00012795,53.1584,265.0303,90.4474,171.2867,0,U,49754,999,551,-.75251318E-3,-.25042E-3,0
STARLINK-3210,2021-115AH,2026-07-19T08:00:01.999872,15.24643648,.00009215,53.1593,277.0112,100.4130,251.5334,0,U,49755,999,575,.37241533E-3,.8988E-4,0
STARLINK-3207,2021-115AJ,2026-07-19T05:10:28.550208,15.35402692,.00012279,53.1601,265.3331,67.9925,292.1208,0,U,49756,999,25557,.1961021E-4,.304E-5,0
STARLINK-3197,2021-115AK,2026-07-19T05:08:01.985568,15.33552102,.00013011,53.1599,265.4040,60.0044,300.1087,0,U,49757,999,25557,.37164959E-4,.85E-5,0
STARLINK-3194,2021-115AL,2026-07-19T05:06:06.104160,15.34391557,.00007276,53.1591,265.2361,57.9588,302.1486,0,U,49758,999,25557,.5606848E-4,.1518E-4,0
STARLINK-3204,2021-115AM,2026-07-19T08:00:01.999872,15.35108105,.00016111,53.1597,265.0687,85.4389,82.0164,0,U,49759,999,581,.46396238E-3,.15688E-3,0
STARLINK-3199,2021-115AN,2026-07-18T21:41:52.782432,15.35388447,.00007382,53.1595,266.7889,86.4760,273.6328,0,U,49760,999,25553,.12043012E-3,.3821E-4,0
STARLINK-3203,2021-115AP,2026-07-19T08:00:01.999872,15.35413074,.00010974,53.1586,264.8122,73.4552,184.0558,0,U,49761,999,581,-.59358819E-3,-.21037E-3,0
STARLINK-3195,2021-115AQ,2026-07-18T13:46:10.977024,15.34067537,.0000842,53.1666,268.2051,238.7351,121.3569,0,U,49762,999,25548,.16258E-2,.54372E-3,0
STARLINK-3198,2021-115AR,2026-07-19T08:00:01.999872,15.21319356,.00015769,53.1595,267.5249,100.5419,163.3314,0,U,49763,999,566,.6097495E-3,.13519E-3,0
STARLINK-3227,2021-115AT,2026-07-19T03:50:51.990144,15.31698974,.0001139,53.1585,264.1015,84.6033,275.5098,0,U,49765,999,25559,.10703209E-4,-.33E-6,0
STARLINK-3190,2021-115AU,2026-07-19T08:00:01.999872,15.33103980,.00017768,53.1605,265.4318,76.0330,64.3992,0,U,49766,999,580,.34516171E-3,.10838E-3,0
STARLINK-3192,2021-115AV,2026-07-18T04:46:53.971392,15.35396244,.00011258,53.1599,270.0930,56.9834,303.1277,0,U,49767,999,25542,-.23082574E-4,-.1185E-4,0
STARLINK-3196,2021-115AW,2026-07-17T11:54:07.064640,15.35393346,.0001056,53.1612,273.3672,88.3985,271.7139,0,U,49768,999,25531,-.31734E-4,-.1487E-4,0
STARLINK-3208,2021-115AX,2026-07-19T08:00:01.999872,15.22039934,.00012493,53.1592,267.5285,67.0147,52.3741,0,U,49769,999,570,.32900559E-3,.7295E-4,0
STARLINK-3191,2021-115AY,2026-07-19T08:00:01.999872,15.21944332,.00007176,53.1598,267.5534,95.2516,332.7762,0,U,49770,999,575,.29352793E-3,.6454E-4,0
STARLINK-3201,2021-115AZ,2026-07-19T08:00:01.999872,15.34084202,.0001355,53.1593,265.1172,78.1524,145.2409,0,U,49771,999,560,.4760016E-3,.1558E-3,0
STARLINK-3297,2021-125D,2026-07-19T08:00:01.999872,15.28546827,.00015062,53.1585,26.8566,105.2126,164.0388,0,U,50159,999,581,.24774695E-2,.70044E-3,0
STARLINK-3304,2021-125F,2026-07-19T08:00:01.999872,15.26502710,.00018191,53.1586,26.8379,115.8347,102.1364,0,U,50161,999,551,.25233192E-2,.67004E-3,0
STARLINK-3306,2021-125H,2026-07-19T08:00:01.999872,15.72751456,.00009013,53.2178,353.3368,47.7605,71.2924,0,U,50163,999,592,.41783182E-3,.57304E-3,0
STARLINK-3298,2021-125K,2026-07-19T08:00:01.999872,15.31222491,.00011485,53.1613,26.6633,32.4899,354.9574,0,U,50165,999,576,.35519657E-2,.109841E-2,0
STARLINK-3305,2021-125L,2026-07-18T19:34:07.517856,15.29359320,.00011344,53.1616,18.2288,95.7895,264.3235,0,U,50166,999,25641,.1984949E-3,.5377E-4,0
STARLINK-3271,2021-125M,2026-07-19T08:00:01.999872,15.20155188,.00019294,53.1602,27.2384,92.3679,39.1241,0,U,50167,999,581,.31262804E-2,.68815E-3,0
STARLINK-3301,2021-125P,2026-07-18T18:19:00.473088,15.35410137,.00008198,53.1611,16.1567,72.6191,287.4902,0,U,50169,999,25645,-.4167315E-5,-.526E-5,0
STARLINK-3245,2021-125Q,2026-07-19T04:49:33.292992,15.29378782,.00011429,53.1607,16.4861,119.0894,241.0221,0,U,50170,999,25647,.12264211E-3,.3187E-4,0
STARLINK-3286,2021-125R,2026-07-19T04:56:45.781152,15.31700390,.0001107,53.1631,13.5534,86.8736,273.2392,0,U,50171,999,25652,.32593121E-4,.646E-5,0
STARLINK-3287,2021-125S,2026-07-19T08:00:01.999872,15.16698407,.00016043,53.1616,17.7340,65.6227,103.4230,0,U,50172,999,561,.36732293E-2,.7326E-3,0
