[ {"name": "STARLINK-3229", "line1": "1 49751U 21115AD  26200.19478558 -.00000161  00000+0  79876-5 0  9993", "line2": "2 49751  53.1602 278.4116 0001136  83.4477 276.6644 15.08830126255391"}, {"name": "STARLINK-3209", "line1": "1 49752U 21115AE  26200.00001157  .00035503  00000+0  10579-2 0  9990", "line2": "2 49752  53.1589 266.2241 0000812  98.4662 271.3848 15.34372097  5705"}, {"name": "STARLINK-3200", "line1": "1 49753U 21115AF  26200.33335648  .00008983  00000+0  37369-3 0  9991", "line2": "2 49753  53.1601 276.7735 0001547  27.2949 129.8652 15.24511904  5801"}, {"name": "STARLINK-3193", "line1": "1 49754U 21115AG  26200.33335648 -.00025042  00000+0 -75251-3 0  9991", "line2": "2 49754  53.1584 265.0303 0001279  90.4474 171.2867 15.33552405  5519"}, {"name": "STARLINK-3210", "line1": "1 49755U 21115AH  26200.33335648  .00008988  00000+0  37242-3 0  9998", "line2": "2 49755  53.1593 277.0112 0000921 100.4130 251.5334 15.24643648  5752"}, {"name": "STARLINK-3207", "line1": "1 49756U 21115AJ  26200.21560822  .00000304  00000+0  19610-4 0  9994", "line2": "2 49756  53.1601 265.3331 0001227  67.9925 292.1208 15.35402692255577"}, {"name": "STARLINK-3197", "line1": "1 49757U 21115AK  26200.21391187  .00000850  00000+0  37165-4 0  9992", "line2": "2 49757  53.1599 265.4040 0001301  60.0044 300.1087 15.33552102255576"}, {"name": "STARLINK-3194", "line1": "1 49758U 21115AL  26200.21257065  .00001518  00000+0  56068-4 0  9994", "line2": "2 49758  53.1591 265.2361 0000727  57.9588 302.1486 15.34391557255573"}, {"name": "STARLINK-3204", "line1": "1 49759U 21115AM  26200.33335648  .00015688  00000+0  46396-3 0  9997", "line2": "2 49759  53.1597 265.0687 0001611  85.4389  82.0164 15.35108105  5810"}, {"name": "STARLINK-3199", "line1": "1 49760U 21115AN  26199.90408313  .00003821  00000+0  12043-3 0  9997", "line2": "2 49760  53.1595 266.7889 0000738  86.4760 273.6328 15.35388447255530"}, {"name": "STARLINK-3203", "line1": "1 49761U 21115AP  26200.33335648 -.00021037  00000+0 -59359-3 0  9990", "line2": "2 49761  53.1586 264.8122 0001097  73.4552 184.0558 15.35413074  5813"}, {"name": "STARLINK-3195", "line1": "1 49762U 21115AQ  26199.57373816  .00054372  00000+0  16258-2 0  9999", "line2": "2 49762  53.1666 268.2051 0000842 238.7351 121.3569 15.34067537255486"}, {"name": "STARLINK-3198", "line1": "1 49763U 21115AR  26200.33335648  .00013519  00000+0  60975-3 0  9992", "line2": "2 49763  53.1595 267.5249 0001576 100.5419 163.3314 15.21319356  5667"}, {"name": "STARLINK-3227", "line1": "1 49765U 21115AT  26200.16032396 -.00000033  00000+0  10703-4 0  9992", "line2": "2 49765  53.1585 264.1015 0001139  84.6033 275.5098 15.31698974255592"}, {"name": "STARLINK-3190", "line1": "1 49766U 21115AU  26200.33335648  .00010838  00000+0  34516-3 0  9998", "line2": "2 49766  53.1605 265.4318 0001776  76.0330  64.3992 15.33103980  5802"}, {"name": "STARLINK-3192", "line1": "1 49767U 21115AV  26199.19923578 -.00001185  00000+0 -23083-4 0  9990", "line2": "2 49767  53.1599 270.0930 0001125  56.9834 303.1277 15.35396244255425"}, {"name": "STARLINK-3196", "line1": "1 49768U 21115AW  26198.49591510 -.00001487  00000+0 -31734-4 0  9997", "line2": "2 49768  53.1612 273.3672 0001056  88.3985 271.7139 15.35393346255315"}, {"name": "STARLINK-3208", "line1": "1 49769U 21115AX  26200.33335648  .00007295  00000+0  32901-3 0  9990", "line2": "2 49769  53.1592 267.5285 0001249  67.0147  52.3741 15.22039934  5700"}, {"name": "STARLINK-3191", "line1": "1 49770U 21115AY  26200.33335648  .00006454  00000+0  29353-3 0  9995", "line2": "2 49770  53.1598 267.5534 0000717  95.2516 332.7762 15.21944332  5756"}, {"name": "STARLINK-3201", "line1": "1 49771U 21115AZ  26200.33335648  .00015580  00000+0  47600-3 0  9991", "line2": "2 49771  53.1593 265.1172 0001355  78.1524 145.2409 15.34084202  5606"}, {"name": "STARLINK-3297", "line1": "1 50159U 21125D   26200.33335648  .00070044  00000+0  24775-2 0  9997", "line2": "2 50159  53.1585  26.8566 0001506 105.2126 164.0388 15.28546827  5813"}, {"name": "STARLINK-3304", "line1": "1 50161U 21125F   26200.33335648  .00067004  00000+0  25233-2 0  9992", "line2": "2 50161  53.1586  26.8379 0001819 115.8347 102.1364 15.26502710  5513"}, {"name": "STARLINK-3306", "line1": "1 50163U 21125H   26200.33335648  .00057304  00000+0  41783-3 0  9995", "line2": "2 50163  53.2178 353.3368 0000901  47.7605  71.2924 15.72751456  5927"}, {"name": "STARLINK-3298", "line1": "1 50165U 21125K   26200.33335648  .00109841  00000+0  35520-2 0  9992", "line2": "2 50165  53.1613  26.6633 0001148  32.4899 354.9574 15.31222491  5768"}, {"name": "STARLINK-3305", "line1": "1 50166U 21125L   26199.81536479  .00005377  00000+0  19849-3 0  9994", "line2": "2 50166  53.1616  18.2288 0001134  95.7895 264.3235 15.29359320256415"}, {"name": "STARLINK-3271", "line1": "1 50167U 21125M   26200.33335648  .00068815  00000+0  31263-2 0  9999", "line2": "2 50167  53.1602  27.2384 0001929  92.3679  39.1241 15.20155188  5811"}, {"name": "STARLINK-3301", "line1": "1 50169U 21125P   26199.76319992 -.00000526  00000+0 -41673-5 0  9995", "line2": "2 50169  53.1611  16.1567 0000819  72.6191 287.4902 15.35410137256454"}, {"name": "STARLINK-3245", "line1": "1 50170U 21125Q   26200.20107978  .00003187  00000+0  12264-3 0  9994", "line2": "2 50170  53.1607  16.4861 0001142 119.0894 241.0221 15.29378782256471"}, {"name": "STARLINK-3286", "line1": "1 50171U 21125R   26200.20608543  .00000646  00000+0  32593-4 0  9994", "line2": "2 50171  53.1631  13.5534 0001107  86.8736 273.2392 15.31700390256520"}, {"name": "STARLINK-3287", "line1": "1 50172U 21125S   26200.33335648  .00073260  00000+0  36732-2 0  9991", "line2": "2 50172  53.1616  17.7340 0001604  65.6227 103.4230 15.16698407  5612"}]